[Satellite]
VERSION=1.1
NAME=GLOBALSTAR M086 [+]
NICKNAME=GLOBALSTAR M086 [+]
TLE1=1 38045U 11080F   15054.28248227 -.00000081  00000-0  12705-3 0  9998
TLE2=2 38045  51.9896 310.7737 0000520  62.1847  94.3807 12.62263907147947
